CCSDS_OMM_VERS = 2.0
CREATION_DATE  = 
ORIGINATOR     = 

OBJECT_NAME    = UNKNOWN
OBJECT_ID      = 
CENTER_NAME    = EARTH
REF_FRAME      = TEME
TIME_SYSTEM    = UTC
MEAN_ELEMENT_THEORY = SGP/SGP4

EPOCH          = 2026-03-13T10:19:37.467264
MEAN_MOTION    = 9.27329261
ECCENTRICITY   = .2823207
INCLINATION    = 62.4752
RA_OF_ASC_NODE = 244.6145
ARG_OF_PERICENTER = 109.1415
MEAN_ANOMALY   = 283.3726

EPHEMERIS_TYPE = 0
CLASSIFICATION_TYPE = U
NORAD_CAT_ID   = 89251
ELEMENT_SET_NO = 999
REV_AT_EPOCH   = 38158
BSTAR          = .10823E-1
MEAN_MOTION_DOT = .19058E-3
MEAN_MOTION_DDOT = 0

CCSDS_OMM_VERS = 2.0
CREATION_DATE  = 
ORIGINATOR     = 

OBJECT_NAME    = UNKNOWN
OBJECT_ID      = 
CENTER_NAME    = EARTH
REF_FRAME      = TEME
TIME_SYSTEM    = UTC
MEAN_ELEMENT_THEORY = SGP/SGP4

EPOCH          = 2026-02-20T10:22:13.073664
MEAN_MOTION    = 14.43288970
ECCENTRICITY   = .0011827
INCLINATION    = 98.1600
RA_OF_ASC_NODE = 47.8830
ARG_OF_PERICENTER = 311.4506
MEAN_ANOMALY   = 48.5668

EPHEMERIS_TYPE = 0
CLASSIFICATION_TYPE = U
NORAD_CAT_ID   = 89261
ELEMENT_SET_NO = 999
REV_AT_EPOCH   = 54386
BSTAR          = .25036E-3
MEAN_MOTION_DOT = .802E-5
MEAN_MOTION_DDOT = 0

CCSDS_OMM_VERS = 2.0
CREATION_DATE  = 
ORIGINATOR     = 

OBJECT_NAME    = UNKNOWN
OBJECT_ID      = 
CENTER_NAME    = EARTH
REF_FRAME      = TEME
TIME_SYSTEM    = UTC
MEAN_ELEMENT_THEORY = SGP/SGP4

EPOCH          = 2026-03-08T06:52:51.423456
MEAN_MOTION    = 12.96285192
ECCENTRICITY   = .0032556
INCLINATION    = 90.2517
RA_OF_ASC_NODE = 9.2713
ARG_OF_PERICENTER = 42.2061
MEAN_ANOMALY   = 318.1557

EPHEMERIS_TYPE = 0
CLASSIFICATION_TYPE = U
NORAD_CAT_ID   = 89349
ELEMENT_SET_NO = 999
REV_AT_EPOCH   = 48983
BSTAR          = .23375E-2
MEAN_MOTION_DOT = .676E-5
MEAN_MOTION_DDOT = 0

CCSDS_OMM_VERS = 2.0
CREATION_DATE  = 
ORIGINATOR     = 

OBJECT_NAME    = UNKNOWN
OBJECT_ID      = 
CENTER_NAME    = EARTH
REF_FRAME      = TEME
TIME_SYSTEM    = UTC
MEAN_ELEMENT_THEORY = SGP/SGP4

EPOCH          = 2026-03-13T12:07:19.699104
MEAN_MOTION    = 13.63520734
ECCENTRICITY   = .0042697
INCLINATION    = 100.4769
RA_OF_ASC_NODE = 99.5719
ARG_OF_PERICENTER = 255.0392
MEAN_ANOMALY   = 104.6018

EPHEMERIS_TYPE = 0
CLASSIFICATION_TYPE = U
NORAD_CAT_ID   = 89379
ELEMENT_SET_NO = 999
REV_AT_EPOCH   = 59314
BSTAR          = .46508E-2
MEAN_MOTION_DOT = .3647E-4
MEAN_MOTION_DDOT = 0

CCSDS_OMM_VERS = 2.0
CREATION_DATE  = 
ORIGINATOR     = 

OBJECT_NAME    = UNKNOWN
OBJECT_ID      = 
CENTER_NAME    = EARTH
REF_FRAME      = TEME
TIME_SYSTEM    = UTC
MEAN_ELEMENT_THEORY = SGP/SGP4

EPOCH          = 2026-03-11T21:23:34.645344
MEAN_MOTION    = 12.01554105
ECCENTRICITY   = .0224774
INCLINATION    = 102.3828
RA_OF_ASC_NODE = 39.1894
ARG_OF_PERICENTER = 333.9759
MEAN_ANOMALY   = 50.0350

EPHEMERIS_TYPE = 0
CLASSIFICATION_TYPE = U
NORAD_CAT_ID   = 89395
ELEMENT_SET_NO = 999
REV_AT_EPOCH   = 53545
BSTAR          = .3253E-2
MEAN_MOTION_DOT = .246E-5
MEAN_MOTION_DDOT = 0

CCSDS_OMM_VERS = 2.0
CREATION_DATE  = 
ORIGINATOR     = 

OBJECT_NAME    = UNKNOWN
OBJECT_ID      = 
CENTER_NAME    = EARTH
REF_FRAME      = TEME
TIME_SYSTEM    = UTC
MEAN_ELEMENT_THEORY = SGP/SGP4

EPOCH          = 2026-03-11T01:41:48.276960
MEAN_MOTION    = 12.98894474
ECCENTRICITY   = .0031792
INCLINATION    = 90.2525
RA_OF_ASC_NODE = 7.8144
ARG_OF_PERICENTER = 352.2576
MEAN_ANOMALY   = 22.8688

EPHEMERIS_TYPE = 0
CLASSIFICATION_TYPE = U
NORAD_CAT_ID   = 89403
ELEMENT_SET_NO = 999
REV_AT_EPOCH   = 48929
BSTAR          = .48242E-2
MEAN_MOTION_DOT = .1439E-4
MEAN_MOTION_DDOT = 0

CCSDS_OMM_VERS = 2.0
CREATION_DATE  = 
ORIGINATOR     = 

OBJECT_NAME    = UNKNOWN
OBJECT_ID      = 
CENTER_NAME    = EARTH
REF_FRAME      = TEME
TIME_SYSTEM    = UTC
MEAN_ELEMENT_THEORY = SGP/SGP4

EPOCH          = 2026-03-12T13:11:21.824160
MEAN_MOTION    = 9.33353376
ECCENTRICITY   = .2855884
INCLINATION    = 83.9703
RA_OF_ASC_NODE = 128.2803
ARG_OF_PERICENTER = 266.3641
MEAN_ANOMALY   = 61.0798

EPHEMERIS_TYPE = 0
CLASSIFICATION_TYPE = U
NORAD_CAT_ID   = 89484
ELEMENT_SET_NO = 999
REV_AT_EPOCH   = 36370
BSTAR          = .74582E-1
MEAN_MOTION_DOT = .234249E-2
MEAN_MOTION_DDOT = 0

CCSDS_OMM_VERS = 2.0
CREATION_DATE  = 
ORIGINATOR     = 

OBJECT_NAME    = UNKNOWN
OBJECT_ID      = 
CENTER_NAME    = EARTH
REF_FRAME      = TEME
TIME_SYSTEM    = UTC
MEAN_ELEMENT_THEORY = SGP/SGP4

EPOCH          = 2026-03-10T15:54:58.400352
MEAN_MOTION    = 14.16828646
ECCENTRICITY   = .0083463
INCLINATION    = 99.0158
RA_OF_ASC_NODE = 144.7342
ARG_OF_PERICENTER = 150.6365
MEAN_ANOMALY   = 209.9537

EPHEMERIS_TYPE = 0
CLASSIFICATION_TYPE = U
NORAD_CAT_ID   = 89493
ELEMENT_SET_NO = 999
REV_AT_EPOCH   = 47639
BSTAR          = .15057E-2
MEAN_MOTION_DOT = .3076E-4
MEAN_MOTION_DDOT = 0

CCSDS_OMM_VERS = 2.0
CREATION_DATE  = 
ORIGINATOR     = 

OBJECT_NAME    = UNKNOWN
OBJECT_ID      = 
CENTER_NAME    = EARTH
REF_FRAME      = TEME
TIME_SYSTEM    = UTC
MEAN_ELEMENT_THEORY = SGP/SGP4

EPOCH          = 2026-03-09T04:01:53.466816
MEAN_MOTION    = 14.16750923
ECCENTRICITY   = .0084131
INCLINATION    = 99.0154
RA_OF_ASC_NODE = 143.0914
ARG_OF_PERICENTER = 154.9361
MEAN_ANOMALY   = 205.5933

EPHEMERIS_TYPE = 0
CLASSIFICATION_TYPE = U
NORAD_CAT_ID   = 89494
ELEMENT_SET_NO = 999
REV_AT_EPOCH   = 47603
BSTAR          = .15898E-2
MEAN_MOTION_DOT = .3248E-4
MEAN_MOTION_DDOT = 0

CCSDS_OMM_VERS = 2.0
CREATION_DATE  = 
ORIGINATOR     = 

OBJECT_NAME    = UNKNOWN
OBJECT_ID      = 
CENTER_NAME    = EARTH
REF_FRAME      = TEME
TIME_SYSTEM    = UTC
MEAN_ELEMENT_THEORY = SGP/SGP4

EPOCH          = 2026-03-11T00:23:00.796416
MEAN_MOTION    = 12.96148492
ECCENTRICITY   = .00328075
INCLINATION    = 90.2312
RA_OF_ASC_NODE = 345.7708
ARG_OF_PERICENTER = 18.2305
MEAN_ANOMALY   = 341.9983

EPHEMERIS_TYPE = 0
CLASSIFICATION_TYPE = U
NORAD_CAT_ID   = 270000
ELEMENT_SET_NO = 999
REV_AT_EPOCH   = 29737
BSTAR          = -.85218149E-4
MEAN_MOTION_DOT = -.17E-6
MEAN_MOTION_DDOT = 0

CCSDS_OMM_VERS = 2.0
CREATION_DATE  = 
ORIGINATOR     = 

OBJECT_NAME    = UNKNOWN
OBJECT_ID      = 
CENTER_NAME    = EARTH
REF_FRAME      = TEME
TIME_SYSTEM    = UTC
MEAN_ELEMENT_THEORY = SGP/SGP4

EPOCH          = 2026-02-18T12:15:25.310304
MEAN_MOTION    = 12.45696817
ECCENTRICITY   = .00435848
INCLINATION    = 101.8188
RA_OF_ASC_NODE = 161.4482
ARG_OF_PERICENTER = 88.9301
MEAN_ANOMALY   = 271.6760

EPHEMERIS_TYPE = 0
CLASSIFICATION_TYPE = U
NORAD_CAT_ID   = 270001
ELEMENT_SET_NO = 999
REV_AT_EPOCH   = 28337
BSTAR          = .47928676E-3
MEAN_MOTION_DOT = .25E-6
MEAN_MOTION_DDOT = 0

CCSDS_OMM_VERS = 2.0
CREATION_DATE  = 
ORIGINATOR     = 

OBJECT_NAME    = UNKNOWN
OBJECT_ID      = 
CENTER_NAME    = EARTH
REF_FRAME      = TEME
TIME_SYSTEM    = UTC
MEAN_ELEMENT_THEORY = SGP/SGP4

EPOCH          = 2026-03-13T07:57:40.703040
MEAN_MOTION    = 13.06838060
ECCENTRICITY   = .05043392
INCLINATION    = 99.6486
RA_OF_ASC_NODE = 107.3357
ARG_OF_PERICENTER = 30.5722
MEAN_ANOMALY   = 332.3785

EPHEMERIS_TYPE = 0
CLASSIFICATION_TYPE = U
NORAD_CAT_ID   = 270003
ELEMENT_SET_NO = 999
REV_AT_EPOCH   = 29917
BSTAR          = .24369685E-2
MEAN_MOTION_DOT = .1463E-4
MEAN_MOTION_DDOT = 0

CCSDS_OMM_VERS = 2.0
CREATION_DATE  = 
ORIGINATOR     = 

OBJECT_NAME    = UNKNOWN
OBJECT_ID      = 
CENTER_NAME    = EARTH
REF_FRAME      = TEME
TIME_SYSTEM    = UTC
MEAN_ELEMENT_THEORY = SGP/SGP4

EPOCH          = 2026-03-12T15:09:03.225312
MEAN_MOTION    = 12.23876005
ECCENTRICITY   = .01624718
INCLINATION    = 101.7098
RA_OF_ASC_NODE = 215.2148
ARG_OF_PERICENTER = 356.3062
MEAN_ANOMALY   = 3.6786

EPHEMERIS_TYPE = 0
CLASSIFICATION_TYPE = U
NORAD_CAT_ID   = 270004
ELEMENT_SET_NO = 999
REV_AT_EPOCH   = 28117
BSTAR          = .12930595E-2
MEAN_MOTION_DOT = .105E-5
MEAN_MOTION_DDOT = 0

CCSDS_OMM_VERS = 2.0
CREATION_DATE  = 
ORIGINATOR     = 

OBJECT_NAME    = UNKNOWN
OBJECT_ID      = 
CENTER_NAME    = EARTH
REF_FRAME      = TEME
TIME_SYSTEM    = UTC
MEAN_ELEMENT_THEORY = SGP/SGP4

EPOCH          = 2026-03-02T15:14:50.889408
MEAN_MOTION    = 12.38823736
ECCENTRICITY   = .00939429
INCLINATION    = 102.2685
RA_OF_ASC_NODE = 29.1301
ARG_OF_PERICENTER = 125.7971
MEAN_ANOMALY   = 235.1867

EPHEMERIS_TYPE = 0
CLASSIFICATION_TYPE = U
NORAD_CAT_ID   = 270006
ELEMENT_SET_NO = 999
REV_AT_EPOCH   = 28338
BSTAR          = .76122618E-4
MEAN_MOTION_DOT = -.35E-6
MEAN_MOTION_DDOT = 0

CCSDS_OMM_VERS = 2.0
CREATION_DATE  = 
ORIGINATOR     = 

OBJECT_NAME    = UNKNOWN
OBJECT_ID      = 
CENTER_NAME    = EARTH
REF_FRAME      = TEME
TIME_SYSTEM    = UTC
MEAN_ELEMENT_THEORY = SGP/SGP4

EPOCH          = 2026-02-28T07:16:43.491360
MEAN_MOTION    = 12.91555089
ECCENTRICITY   = .05650337
INCLINATION    = 31.9949
RA_OF_ASC_NODE = 54.6869
ARG_OF_PERICENTER = 145.8565
MEAN_ANOMALY   = 217.9728

EPHEMERIS_TYPE = 0
CLASSIFICATION_TYPE = U
NORAD_CAT_ID   = 270007
ELEMENT_SET_NO = 999
REV_AT_EPOCH   = 29559
BSTAR          = .26259026E-3
MEAN_MOTION_DOT = .17E-5
MEAN_MOTION_DDOT = 0

CCSDS_OMM_VERS = 2.0
CREATION_DATE  = 
ORIGINATOR     = 

OBJECT_NAME    = UNKNOWN
OBJECT_ID      = 
CENTER_NAME    = EARTH
REF_FRAME      = TEME
TIME_SYSTEM    = UTC
MEAN_ELEMENT_THEORY = SGP/SGP4

EPOCH          = 2026-03-11T14:26:50.232192
MEAN_MOTION    = 12.97626285
ECCENTRICITY   = .00335665
INCLINATION    = 90.2722
RA_OF_ASC_NODE = 25.6270
ARG_OF_PERICENTER = 324.9748
MEAN_ANOMALY   = 34.9165

EPHEMERIS_TYPE = 0
CLASSIFICATION_TYPE = U
NORAD_CAT_ID   = 270008
ELEMENT_SET_NO = 999
REV_AT_EPOCH   = 29780
BSTAR          = -.48310336E-3
MEAN_MOTION_DOT = -.134E-5
MEAN_MOTION_DDOT = 0

